[{"OBJECT_NAME":"STARLINK-35401","OBJECT_ID":"2025-235K","EPOCH":"2026-03-20T14:51:09.555840","MEAN_MOTION":15.3020487,"ECCENTRICITY":9.45e-5,"INCLINATION":53.159,"RA_OF_ASC_NODE":194.5835,"ARG_OF_PERICENTER":65.7822,"MEAN_ANOMALY":294.3277,"EPHEMERIS_TYPE":0,"CLASSIFICATION_TYPE":"U","NORAD_CAT_ID":66067,"ELEMENT_SET_NO":999,"REV_AT_EPOCH":2456,"BSTAR":0.00091747,"MEAN_MOTION_DOT":0.00026916,"MEAN_MOTION_DDOT":0},{"OBJECT_NAME":"STARLINK-35422","OBJECT_ID":"2025-235L","EPOCH":"2026-03-20T14:31:24.415680","MEAN_MOTION":15.30207584,"ECCENTRICITY":0.0001037,"INCLINATION":53.1556,"RA_OF_ASC_NODE":194.4963,"ARG_OF_PERICENTER":70.7069,"MEAN_ANOMALY":289.4044,"EPHEMERIS_TYPE":0,"CLASSIFICATION_TYPE":"U","NORAD_CAT_ID":66068,"ELEMENT_SET_NO":999,"REV_AT_EPOCH":2456,"BSTAR":0.00085567,"MEAN_MOTION_DOT":0.00025075,"MEAN_MOTION_DDOT":0},{"OBJECT_NAME":"STARLINK-35279","OBJECT_ID":"2025-235M","EPOCH":"2026-03-20T08:06:04.349376","MEAN_MOTION":15.30206211,"ECCENTRICITY":5.273e-5,"INCLINATION":53.1577,"RA_OF_ASC_NODE":195.6707,"ARG_OF_PERICENTER":32.3677,"MEAN_ANOMALY":327.7356,"EPHEMERIS_TYPE":0,"CLASSIFICATION_TYPE":"U","NORAD_CAT_ID":66069,"ELEMENT_SET_NO":999,"REV_AT_EPOCH":2455,"BSTAR":0.0005135772,"MEAN_MOTION_DOT":0.00014885,"MEAN_MOTION_DDOT":0},{"OBJECT_NAME":"STARLINK-35295","OBJECT_ID":"2025-235N","EPOCH":"2026-03-20T16:55:35.725440","MEAN_MOTION":15.30226106,"ECCENTRICITY":1.77e-5,"INCLINATION":53.1628,"RA_OF_ASC_NODE":194.4068,"ARG_OF_PERICENTER":224.7423,"MEAN_ANOMALY":135.3563,"EPHEMERIS_TYPE":0,"CLASSIFICATION_TYPE":"U","NORAD_CAT_ID":66070,"ELEMENT_SET_NO":999,"REV_AT_EPOCH":2460,"BSTAR":0.00079975658,"MEAN_MOTION_DOT":0.00023421,"MEAN_MOTION_DDOT":0},{"OBJECT_NAME":"STARLINK-35323","OBJECT_ID":"2025-235P","EPOCH":"2026-03-20T17:12:09.233856","MEAN_MOTION":15.30221599,"ECCENTRICITY":6.37e-5,"INCLINATION":53.1629,"RA_OF_ASC_NODE":193.7727,"ARG_OF_PERICENTER":3.126,"MEAN_ANOMALY":356.9744,"EPHEMERIS_TYPE":0,"CLASSIFICATION_TYPE":"U","NORAD_CAT_ID":66071,"ELEMENT_SET_NO":999,"REV_AT_EPOCH":2461,"BSTAR":0.00090521,"MEAN_MOTION_DOT":0.00026564,"MEAN_MOTION_DDOT":0},{"OBJECT_NAME":"STARLINK-35299","OBJECT_ID":"2025-235Q","EPOCH":"2026-03-20T16:32:48.421248","MEAN_MOTION":15.30226733,"ECCENTRICITY":4.888e-5,"INCLINATION":53.1605,"RA_OF_ASC_NODE":194.3127,"ARG_OF_PERICENTER":114.5249,"MEAN_ANOMALY":245.5803,"EPHEMERIS_TYPE":0,"CLASSIFICATION_TYPE":"U","NORAD_CAT_ID":66072,"ELEMENT_SET_NO":999,"REV_AT_EPOCH":2460,"BSTAR":0.001040162,"MEAN_MOTION_DOT":0.000306,"MEAN_MOTION_DDOT":0},{"OBJECT_NAME":"STARLINK-35274","OBJECT_ID":"2025-235R","EPOCH":"2026-03-20T16:57:07.771680","MEAN_MOTION":15.30197698,"ECCENTRICITY":0.00013526,"INCLINATION":53.1586,"RA_OF_ASC_NODE":194.4185,"ARG_OF_PERICENTER":89.4713,"MEAN_ANOMALY":270.6442,"EPHEMERIS_TYPE":0,"CLASSIFICATION_TYPE":"U","NORAD_CAT_ID":66073,"ELEMENT_SET_NO":999,"REV_AT_EPOCH":2460,"BSTAR":0.00095820191,"MEAN_MOTION_DOT":0.00028125,"MEAN_MOTION_DDOT":0},{"OBJECT_NAME":"STARLINK-35321","OBJECT_ID":"2025-235S","EPOCH":"2026-03-20T16:48:00.290304","MEAN_MOTION":15.30217328,"ECCENTRICITY":4.396e-5,"INCLINATION":53.1577,"RA_OF_ASC_NODE":194.377,"ARG_OF_PERICENTER":106.2522,"MEAN_ANOMALY":253.8528,"EPHEMERIS_TYPE":0,"CLASSIFICATION_TYPE":"U","NORAD_CAT_ID":66074,"ELEMENT_SET_NO":999,"REV_AT_EPOCH":2460,"BSTAR":0.0010548032,"MEAN_MOTION_DOT":0.00031028,"MEAN_MOTION_DDOT":0},{"OBJECT_NAME":"STARLINK-35131","OBJECT_ID":"2025-235T","EPOCH":"2026-03-20T14:46:36.067008","MEAN_MOTION":15.30197361,"ECCENTRICITY":8.93e-5,"INCLINATION":53.1589,"RA_OF_ASC_NODE":194.5611,"ARG_OF_PERICENTER":27.5365,"MEAN_ANOMALY":332.5683,"EPHEMERIS_TYPE":0,"CLASSIFICATION_TYPE":"U","NORAD_CAT_ID":66075,"ELEMENT_SET_NO":999,"REV_AT_EPOCH":2459,"BSTAR":0.00093715,"MEAN_MOTION_DOT":0.00027497,"MEAN_MOTION_DDOT":0},{"OBJECT_NAME":"STARLINK-34801","OBJECT_ID":"2025-235U","EPOCH":"2026-03-20T16:38:53.280672","MEAN_MOTION":15.30208734,"ECCENTRICITY":7.681e-5,"INCLINATION":53.157,"RA_OF_ASC_NODE":194.3433,"ARG_OF_PERICENTER":80.8182,"MEAN_ANOMALY":279.2906,"EPHEMERIS_TYPE":0,"CLASSIFICATION_TYPE":"U","NORAD_CAT_ID":66076,"ELEMENT_SET_NO":999,"REV_AT_EPOCH":2460,"BSTAR":0.00078132916,"MEAN_MOTION_DOT":0.00022859,"MEAN_MOTION_DDOT":0},{"OBJECT_NAME":"STARLINK-35129","OBJECT_ID":"2025-235V","EPOCH":"2026-03-20T18:03:47.958624","MEAN_MOTION":15.30201016,"ECCENTRICITY":0.00022121,"INCLINATION":53.159,"RA_OF_ASC_NODE":193.9945,"ARG_OF_PERICENTER":340.5672,"MEAN_ANOMALY":19.5244,"EPHEMERIS_TYPE":0,"CLASSIFICATION_TYPE":"U","NORAD_CAT_ID":66077,"ELEMENT_SET_NO":999,"REV_AT_EPOCH":2461,"BSTAR":0.0012714532,"MEAN_MOTION_DOT":0.0003749,"MEAN_MOTION_DDOT":0},{"OBJECT_NAME":"STARLINK-35116","OBJECT_ID":"2025-235W","EPOCH":"2026-03-20T17:34:57.091872","MEAN_MOTION":15.3020977,"ECCENTRICITY":0.00010689,"INCLINATION":53.1583,"RA_OF_ASC_NODE":193.8685,"ARG_OF_PERICENTER":70.2279,"MEAN_ANOMALY":289.8837,"EPHEMERIS_TYPE":0,"CLASSIFICATION_TYPE":"U","NORAD_CAT_ID":66078,"ELEMENT_SET_NO":999,"REV_AT_EPOCH":2461,"BSTAR":0.0013344397,"MEAN_MOTION_DOT":0.00039385,"MEAN_MOTION_DDOT":0},{"OBJECT_NAME":"STARLINK-35402","OBJECT_ID":"2025-235X","EPOCH":"2026-03-20T08:01:30.854496","MEAN_MOTION":15.30206598,"ECCENTRICITY":6.85e-5,"INCLINATION":53.1573,"RA_OF_ASC_NODE":195.6464,"ARG_OF_PERICENTER":332.9688,"MEAN_ANOMALY":27.1277,"EPHEMERIS_TYPE":0,"CLASSIFICATION_TYPE":"U","NORAD_CAT_ID":66079,"ELEMENT_SET_NO":999,"REV_AT_EPOCH":2455,"BSTAR":0.00071977,"MEAN_MOTION_DOT":0.00021023,"MEAN_MOTION_DDOT":0},{"OBJECT_NAME":"STARLINK-35325","OBJECT_ID":"2025-235Y","EPOCH":"2026-03-20T17:44:04.730496","MEAN_MOTION":15.30184801,"ECCENTRICITY":6.54e-5,"INCLINATION":53.1656,"RA_OF_ASC_NODE":193.9105,"ARG_OF_PERICENTER":62.4913,"MEAN_ANOMALY":297.6154,"EPHEMERIS_TYPE":0,"CLASSIFICATION_TYPE":"U","NORAD_CAT_ID":66080,"ELEMENT_SET_NO":999,"REV_AT_EPOCH":2461,"BSTAR":0.0015123,"MEAN_MOTION_DOT":0.00044678,"MEAN_MOTION_DDOT":0},{"OBJECT_NAME":"STARLINK-35403","OBJECT_ID":"2025-235Z","EPOCH":"2026-03-20T17:07:35.910912","MEAN_MOTION":15.30210403,"ECCENTRICITY":0.000108,"INCLINATION":53.1615,"RA_OF_ASC_NODE":193.7494,"ARG_OF_PERICENTER":77.5015,"MEAN_ANOMALY":282.6107,"EPHEMERIS_TYPE":0,"CLASSIFICATION_TYPE":"U","NORAD_CAT_ID":66081,"ELEMENT_SET_NO":999,"REV_AT_EPOCH":2461,"BSTAR":0.001134,"MEAN_MOTION_DOT":0.00033387,"MEAN_MOTION_DDOT":0},{"OBJECT_NAME":"STARLINK-35011","OBJECT_ID":"2025-235AA","EPOCH":"2026-03-20T17:16:44.805792","MEAN_MOTION":15.30201141,"ECCENTRICITY":8.71e-5,"INCLINATION":53.1591,"RA_OF_ASC_NODE":193.7887,"ARG_OF_PERICENTER":69.1218,"MEAN_ANOMALY":290.9876,"EPHEMERIS_TYPE":0,"CLASSIFICATION_TYPE":"U","NORAD_CAT_ID":66082,"ELEMENT_SET_NO":999,"REV_AT_EPOCH":2461,"BSTAR":0.0013305,"MEAN_MOTION_DOT":0.00039256,"MEAN_MOTION_DDOT":0}]
