STARLINK-35401
1 66067U 25235K   26079.61886060  .00026916  00000+0  91747-3 0  9995
2 66067  53.1590 194.5835 0000945  65.7822 294.3277 15.30204870 24564
STARLINK-35422
1 66068U 25235L   26079.60514370  .00025075  00000+0  85567-3 0  9995
2 66068  53.1556 194.4963 0001037  70.7069 289.4044 15.30207584 24562
STARLINK-35279
1 66069U 25235M   26079.33755034  .00014885  00000+0  51358-3 0  9998
2 66069  53.1577 195.6707 0000527  32.3677 327.7356 15.30206211 24554
STARLINK-35295
1 66070U 25235N   26079.70527460  .00023421  00000+0  79976-3 0  9993
2 66070  53.1628 194.4068 0000177 224.7423 135.3563 15.30226106 24601
STARLINK-35323
1 66071U 25235P   26079.71677354  .00026564  00000+0  90521-3 0  9993
2 66071  53.1629 193.7727 0000637   3.1260 356.9744 15.30221599 24610
STARLINK-35299
1 66072U 25235Q   26079.68944932  .00030600  00000+0  10402-2 0  9994
2 66072  53.1605 194.3127 0000488 114.5249 245.5803 15.30226733 24607
STARLINK-35274
1 66073U 25235R   26079.70633995  .00028125  00000+0  95820-3 0  9999
2 66073  53.1586 194.4185 0001352  89.4713 270.6442 15.30197698 24603
STARLINK-35321
1 66074U 25235S   26079.70000336  .00031028  00000+0  10548-2 0  9996
2 66074  53.1577 194.3770 0000439 106.2522 253.8528 15.30217328 24605
STARLINK-35131
1 66075U 25235T   26079.61569522  .00027497  00000+0  93715-3 0  9997
2 66075  53.1589 194.5611 0000893  27.5365 332.5683 15.30197361 24598
STARLINK-34801
1 66076U 25235U   26079.69367223  .00022859  00000+0  78133-3 0  9994
2 66076  53.1570 194.3433 0000768  80.8182 279.2906 15.30208734 24603
STARLINK-35129
1 66077U 25235V   26079.75263841  .00037490  00000+0  12715-2 0  9993
2 66077  53.1590 193.9945 0002212 340.5672  19.5244 15.30201016 24612
STARLINK-35116
1 66078U 25235W   26079.73260523  .00039385  00000+0  13344-2 0  9990
2 66078  53.1583 193.8685 0001068  70.2279 289.8837 15.30209770 24618
STARLINK-35402
1 66079U 25235X   26079.33438489  .00021023  00000+0  71977-3 0  9992
2 66079  53.1573 195.6464 0000685 332.9688  27.1277 15.30206598 24558
STARLINK-35325
1 66080U 25235Y   26079.73894364  .00044678  00000+0  15123-2 0  9997
2 66080  53.1656 193.9105 0000654  62.4913 297.6154 15.30184801 24614
STARLINK-35403
1 66081U 25235Z   26079.71361008  .00033387  00000+0  11340-2 0  9992
2 66081  53.1615 193.7494 0001080  77.5015 282.6107 15.30210403 24613
STARLINK-35011
1 66082U 25235AA  26079.71996303  .00039256  00000+0  13305-2 0  9999
2 66082  53.1591 193.7887 0000871  69.1218 290.9876 15.30201141 24616
